{"type": "FeatureCollection", "features": [ {"type": "Feature", "properties": {"norad_id": 60453, "name": "LEGION 4", "group": "resource", "lat": -0.8925747007575547, "lon": -152.67878119695936, "alt_km": 523.7524916329648, "timestamp": "2025-12-15T14:57:57.498015+00:00", "meta": {"OBJECT_NAME": "LEGION 4", "OBJECT_ID": "2024-146B", "EPOCH": "2025-12-14T14:26:43.785888", "MEAN_MOTION": 15.15849123, "ECCENTRICITY": 0.00093135, "INCLINATION": 45.0398, "RA_OF_ASC_NODE": 31.906, "ARG_OF_PERICENTER": 320.5343, "MEAN_ANOMALY": 39.4857, "EPHEMERIS_TYPE": 0, "CLASSIFICATION_TYPE": "U", "NORAD_CAT_ID": 60453, "ELEMENT_SET_NO": 999, "REV_AT_EPOCH": 7286, "BSTAR": 0.00028823024, "MEAN_MOTION_DOT": 5.35e-05, "MEAN_MOTION_DDOT": 0}, "tle": {"line1": "1 60453U 24146B   25348.60189567  .00005350  00000+0  28823-3 0  9997", "line2": "2 60453  45.0398  31.9060 0009313 320.5343  39.4857 15.15849123 72862"}}, "geometry": {"type": "Point", "coordinates": [-152.67878119695936, -0.8925747007575547]}}, {"type": "Feature", "properties": {"norad_id": 60989, "name": "SENTINEL-2C", "group": "resource", "lat": 81.41524552769891, "lon": -24.996636772924617, "alt_km": 780.6583715253319, "timestamp": "2025-12-15T14:57:57.498024+00:00", "meta": {"OBJECT_NAME": "SENTINEL-2C", "OBJECT_ID": "2024-157A", "EPOCH": "2025-12-14T20:05:15.046080", "MEAN_MOTION": 14.30818308, "ECCENTRICITY": 0.00012259, "INCLINATION": 98.5682, "RA_OF_ASC_NODE": 61.2894, "ARG_OF_PERICENTER": 97.2727, "MEAN_ANOMALY": 262.8596, "EPHEMERIS_TYPE": 0, "CLASSIFICATION_TYPE": "U", "NORAD_CAT_ID": 60989, "ELEMENT_SET_NO": 999, "REV_AT_EPOCH": 6662, "BSTAR": 7.1482627e-05, "MEAN_MOTION_DOT": 1.44e-06, "MEAN_MOTION_DDOT": 0}, "tle": {"line1": "1 60989U 24157A   25348.83697970  .00000144  00000+0  71483-4 0  9997", "line2": "2 60989  98.5682  61.2894 0001225  97.2727 262.8596 14.30818308 66620"}}, "geometry": {"type": "Point", "coordinates": [-24.996636772924617, 81.41524552769891]}}, {"type": "Feature", "properties": {"norad_id": 61735, "name": "IONOSFERA-M 1", "group": "resource", "lat": -81.04243207297658, "lon": -63.13333155053016, "alt_km": 823.6768594966225, "timestamp": "2025-12-15T14:57:57.498034+00:00", "meta": {"OBJECT_NAME": "IONOSFERA-M 1", "OBJECT_ID": "2024-199A", "EPOCH": "2025-12-14T22:30:02.305152", "MEAN_MOTION": 14.22714452, "ECCENTRICITY": 8.594e-05, "INCLINATION": 98.7403, "RA_OF_ASC_NODE": 218.7689, "ARG_OF_PERICENTER": 19.0603, "MEAN_ANOMALY": 341.0607, "EPHEMERIS_TYPE": 0, "CLASSIFICATION_TYPE": "U", "NORAD_CAT_ID": 61735, "ELEMENT_SET_NO": 999, "REV_AT_EPOCH": 10150, "BSTAR": 4.8127105e-05, "MEAN_MOTION_DOT": 6.4e-07, "MEAN_MOTION_DDOT": 0}, "tle": {"line1": "1 61735U 24199A   25348.93752668  .00000064  00000+0  48127-4 0  9990", "line2": "2 61735  98.7403 218.7689 0000859  19.0603 341.0607 14.22714452101507"}}, "geometry": {"type": "Point", "coordinates": [-63.13333155053016, -81.04243207297658]}}, {"type": "Feature", "properties": {"norad_id": 61736, "name": "IONOSFERA-M 2", "group": "resource", "lat": 80.10401029791265, "lon": 101.22279495196555, "alt_km": 807.5647702279912, "timestamp": "2025-12-15T14:57:57.498043+00:00", "meta": {"OBJECT_NAME": "IONOSFERA-M 2", "OBJECT_ID": "2024-199B", "EPOCH": "2025-12-14T23:19:55.471584", "MEAN_MOTION": 14.22716699, "ECCENTRICITY": 0.00016943, "INCLINATION": 98.7401, "RA_OF_ASC_NODE": 218.7158, "ARG_OF_PERICENTER": 107.7285, "MEAN_ANOMALY": 252.4078, "EPHEMERIS_TYPE": 0, "CLASSIFICATION_TYPE": "U", "NORAD_CAT_ID": 61736, "ELEMENT_SET_NO": 999, "REV_AT_EPOCH": 10463, "BSTAR": 5.1617469e-05, "MEAN_MOTION_DOT": 7.1e-07, "MEAN_MOTION_DDOT": 0}, "tle": {"line1": "1 61736U 24199B   25348.97216981  .00000071  00000+0  51617-4 0  9994", "line2": "2 61736  98.7401 218.7158 0001694 107.7285 252.4078 14.22716699104635"}}, "geometry": {"type": "Point", "coordinates": [101.22279495196555, 80.10401029791265]}}, {"type": "Feature", "properties": {"norad_id": 63772, "name": "BIOMASS", "group": "resource", "lat": 30.9917728199373, "lon": 169.702296167997, "alt_km": 666.7651683224312, "timestamp": "2025-12-15T14:57:57.498052+00:00", "meta": {"OBJECT_NAME": "BIOMASS", "OBJECT_ID": "2025-090A", "EPOCH": "2025-12-14T22:27:35.456256", "MEAN_MOTION": 14.67530969, "ECCENTRICITY": 0.00011973, "INCLINATION": 98.07, "RA_OF_ASC_NODE": 173.9137, "ARG_OF_PERICENTER": 86.382, "MEAN_ANOMALY": 273.7522, "EPHEMERIS_TYPE": 0, "CLASSIFICATION_TYPE": "U", "NORAD_CAT_ID": 63772, "ELEMENT_SET_NO": 999, "REV_AT_EPOCH": 3366, "BSTAR": 0.00022736511, "MEAN_MOTION_DOT": 1.241e-05, "MEAN_MOTION_DDOT": 0}, "tle": {"line1": "1 63772U 25090A   25348.93582704  .00001241  00000+0  22737-3 0  9992", "line2": "2 63772  98.0700 173.9137 0001197  86.3820 273.7522 14.67530969 33663"}}, "geometry": {"type": "Point", "coordinates": [169.702296167997, 30.9917728199373]}}, {"type": "Feature", "properties": {"norad_id": 64694, "name": "GOSAT-GW (IBUKI GW)", "group": "resource", "lat": -60.25443656188499, "lon": 90.75831751891278, "alt_km": 676.9724152294648, "timestamp": "2025-12-15T14:57:57.498061+00:00", "meta": {"OBJECT_NAME": "GOSAT-GW (IBUKI GW)", "OBJECT_ID": "2025-141A", "EPOCH": "2025-12-14T23:08:35.284992", "MEAN_MOTION": 14.67561818, "ECCENTRICITY": 0.00014711, "INCLINATION": 98.0427, "RA_OF_ASC_NODE": 284.4368, "ARG_OF_PERICENTER": 84.3351, "MEAN_ANOMALY": 275.8022, "EPHEMERIS_TYPE": 0, "CLASSIFICATION_TYPE": "U", "NORAD_CAT_ID": 64694, "ELEMENT_SET_NO": 999, "REV_AT_EPOCH": 2482, "BSTAR": 0.0001914097, "MEAN_MOTION_DOT": 1.038e-05, "MEAN_MOTION_DDOT": 0}, "tle": {"line1": "1 64694U 25141A   25348.96429728  .00001038  00000+0  19141-3 0  9991", "line2": "2 64694  98.0427 284.4368 0001471  84.3351 275.8022 14.67561818 24822"}}, "geometry": {"type": "Point", "coordinates": [90.75831751891278, -60.25443656188499]}}, {"type": "Feature", "properties": {"norad_id": 64876, "name": "IONOSFERA-M 3", "group": "resource", "lat": 53.39162518993102, "lon": 143.13153416224222, "alt_km": 814.9161257843825, "timestamp": "2025-12-15T14:57:57.498070+00:00", "meta": {"OBJECT_NAME": "IONOSFERA-M 3", "OBJECT_ID": "2025-155A", "EPOCH": "2025-12-14T23:10:21.295200", "MEAN_MOTION": 14.21441573, "ECCENTRICITY": 0.00021832, "INCLINATION": 98.5785, "RA_OF_ASC_NODE": 310.7686, "ARG_OF_PERICENTER": 56.5789, "MEAN_ANOMALY": 303.5598, "EPHEMERIS_TYPE": 0, "CLASSIFICATION_TYPE": "U", "NORAD_CAT_ID": 64876, "ELEMENT_SET_NO": 999, "REV_AT_EPOCH": 2023, "BSTAR": 6.0586253e-05, "MEAN_MOTION_DOT": 9e-07, "MEAN_MOTION_DDOT": 0}, "tle": {"line1": "1 64876U 25155A   25348.96552425  .00000090  00000+0  60586-4 0  9996", "line2": "2 64876  98.5785 310.7686 0002183  56.5789 303.5598 14.21441573 20232"}}, "geometry": {"type": "Point", "coordinates": [143.13153416224222, 53.39162518993102]}}, {"type": "Feature", "properties": {"norad_id": 64877, "name": "IONOSFERA-M 4", "group": "resource", "lat": -52.91782867864887, "lon": -37.15219438967574, "alt_km": 827.8620206860223, "timestamp": "2025-12-15T14:57:57.498080+00:00", "meta": {"OBJECT_NAME": "IONOSFERA-M 4", "OBJECT_ID": "2025-155B", "EPOCH": "2025-12-14T22:19:29.081280", "MEAN_MOTION": 14.2144268, "ECCENTRICITY": 0.00015605, "INCLINATION": 98.5783, "RA_OF_ASC_NODE": 310.6539, "ARG_OF_PERICENTER": 61.2156, "MEAN_ANOMALY": 298.9178, "EPHEMERIS_TYPE": 0, "CLASSIFICATION_TYPE": "U", "NORAD_CAT_ID": 64877, "ELEMENT_SET_NO": 999, "REV_AT_EPOCH": 2022, "BSTAR": 6.0334315e-05, "MEAN_MOTION_DOT": 8.9e-07, "MEAN_MOTION_DDOT": 0}, "tle": {"line1": "1 64877U 25155B   25348.93019770  .00000089  00000+0  60334-4 0  9994", "line2": "2 64877  98.5783 310.6539 0001560  61.2156 298.9178 14.21442680 20226"}}, "geometry": {"type": "Point", "coordinates": [-37.15219438967574, -52.91782867864887]}}, {"type": "Feature", "properties": {"norad_id": 64899, "name": "MICROCARB", "group": "resource", "lat": -80.90998684361054, "lon": -176.63058395284355, "alt_km": 669.6110470627827, "timestamp": "2025-12-15T14:57:57.498089+00:00", "meta": {"OBJECT_NAME": "MICROCARB", "OBJECT_ID": "2025-156A", "EPOCH": "2025-12-14T18:11:15.673056", "MEAN_MOTION": 14.72060628, "ECCENTRICITY": 0.00172655, "INCLINATION": 98.0024, "RA_OF_ASC_NODE": 64.0709, "ARG_OF_PERICENTER": 138.5956, "MEAN_ANOMALY": 221.6563, "EPHEMERIS_TYPE": 0, "CLASSIFICATION_TYPE": "U", "NORAD_CAT_ID": 64899, "ELEMENT_SET_NO": 999, "REV_AT_EPOCH": 2083, "BSTAR": 0.00014408008, "MEAN_MOTION_DOT": 8.58e-06, "MEAN_MOTION_DDOT": 0}, "tle": {"line1": "1 64899U 25156A   25348.75782029  .00000858  00000+0  14408-3 0  9997", "line2": "2 64899  98.0024  64.0709 0017265 138.5956 221.6563 14.72060628 20839"}}, "geometry": {"type": "Point", "coordinates": [-176.63058395284355, -80.90998684361054]}}, {"type": "Feature", "properties": {"norad_id": 64900, "name": "CO3D 3", "group": "resource", "lat": 81.56298233519297, "lon": 4.265529242057463, "alt_km": 496.8054873996416, "timestamp": "2025-12-15T14:57:57.498099+00:00", "meta": {"OBJECT_NAME": "CO3D 3", "OBJECT_ID": "2025-156B", "EPOCH": "2025-12-13T16:46:35.865408", "MEAN_MOTION": 15.2020033, "ECCENTRICITY": 0.00013843, "INCLINATION": 97.4344, "RA_OF_ASC_NODE": 64.0523, "ARG_OF_PERICENTER": 93.9049, "MEAN_ANOMALY": 266.2345, "EPHEMERIS_TYPE": 0, "CLASSIFICATION_TYPE": "U", "NORAD_CAT_ID": 64900, "ELEMENT_SET_NO": 999, "REV_AT_EPOCH": 2135, "BSTAR": 0.00015817929, "MEAN_MOTION_DOT": 3.358e-05, "MEAN_MOTION_DDOT": 0}, "tle": {"line1": "1 64900U 25156B   25347.69902622  .00003358  00000+0  15818-3 0  9999", "line2": "2 64900  97.4344  64.0523 0001384  93.9049 266.2345 15.20200330 21357"}}, "geometry": {"type": "Point", "coordinates": [4.265529242057463, 81.56298233519297]}}]}